{
  "type": "FeatureCollection",
  "features": [
    {
      "type": "Feature",
      "properties": {
        "norad_id": 30760,
        "name": "FENGYUN 1C DEB",
        "group": "fengyun-1c-debris",
        "lat": -70.68723386304497,
        "lon": 24.18485733350655,
        "alt_km": 846.3881435681069,
        "timestamp": "2025-12-27T14:26:30.800397+00:00",
        "meta_object_name": "FENGYUN 1C DEB",
        "meta_object_id": "1999-025ATW",
        "meta_epoch": "2025-12-27T06:14:24.190944",
        "meta_mean_motion": 14.05193512,
        "meta_eccentricity": 0.00522149,
        "meta_inclination": 98.823,
        "meta_ra_of_asc_node": 357.5443,
        "meta_arg_of_pericenter": 302.4761,
        "meta_mean_anomaly": 57.1365,
        "meta_ephemeris_type": 0,
        "meta_classification_type": "U",
        "meta_norad_cat_id": 30760,
        "meta_element_set_no": 999,
        "meta_rev_at_epoch": 96426,
        "meta_bstar": 0.00022714506,
        "meta_mean_motion_dot": 3.28e-06,
        "meta_mean_motion_ddot": 0,
        "tle_line1": "1 30760U 99025ATW 25361.26000221  .00000328  00000+0  22715-3 0  9993",
        "tle_line2": "2 30760  98.8230 357.5443 0052214 302.4761  57.1365 14.05193512964261"
      },
      "geometry": {
        "type": "Point",
        "coordinates": [
          24.18485733350655,
          -70.68723386304497
        ]
      }
    },
    {
      "type": "Feature",
      "properties": {
        "norad_id": 30761,
        "name": "FENGYUN 1C DEB",
        "group": "fengyun-1c-debris",
        "lat": -52.26918722908984,
        "lon": 96.50665393352793,
        "alt_km": 731.1404052175621,
        "timestamp": "2025-12-27T14:26:30.800408+00:00",
        "meta_object_name": "FENGYUN 1C DEB",
        "meta_object_id": "1999-025ATX",
        "meta_epoch": "2025-12-26T12:15:57.555648",
        "meta_mean_motion": 14.35854031,
        "meta_eccentricity": 0.0083614,
        "meta_inclination": 98.9666,
        "meta_ra_of_asc_node": 287.1472,
        "meta_arg_of_pericenter": 273.2267,
        "meta_mean_anomaly": 85.9354,
        "meta_ephemeris_type": 0,
        "meta_classification_type": "U",
        "meta_norad_cat_id": 30761,
        "meta_element_set_no": 999,
        "meta_rev_at_epoch": 97939,
        "meta_bstar": 0.001036,
        "meta_mean_motion_dot": 3.075e-05,
        "meta_mean_motion_ddot": 0,
        "tle_line1": "1 30761U 99025ATX 25360.51108282  .00003075  00000+0  10360-2 0  9991",
        "tle_line2": "2 30761  98.9666 287.1472 0083614 273.2267  85.9354 14.35854031979390"
      },
      "geometry": {
        "type": "Point",
        "coordinates": [
          96.50665393352793,
          -52.26918722908984
        ]
      }
    },
    {
      "type": "Feature",
      "properties": {
        "norad_id": 30762,
        "name": "FENGYUN 1C DEB",
        "group": "fengyun-1c-debris",
        "lat": -9.78057821456689,
        "lon": 170.36760397360658,
        "alt_km": 839.3971539220447,
        "timestamp": "2025-12-27T14:26:30.800418+00:00",
        "meta_object_name": "FENGYUN 1C DEB",
        "meta_object_id": "1999-025ATY",
        "meta_epoch": "2025-12-27T05:14:07.181088",
        "meta_mean_motion": 13.98118718,
        "meta_eccentricity": 0.01973833,
        "meta_inclination": 98.8766,
        "meta_ra_of_asc_node": 351.54,
        "meta_arg_of_pericenter": 254.9697,
        "meta_mean_anomaly": 167.1164,
        "meta_ephemeris_type": 0,
        "meta_classification_type": "U",
        "meta_norad_cat_id": 30762,
        "meta_element_set_no": 999,
        "meta_rev_at_epoch": 95840,
        "meta_bstar": 0.00049276098,
        "meta_mean_motion_dot": 7.83e-06,
        "meta_mean_motion_ddot": 0,
        "tle_line1": "1 30762U 99025ATY 25361.21813867  .00000783  00000+0  49276-3 0  9994",
        "tle_line2": "2 30762  98.8766 351.5400 0197383 254.9697 167.1164 13.98118718958404"
      },
      "geometry": {
        "type": "Point",
        "coordinates": [
          170.36760397360658,
          -9.78057821456689
        ]
      }
    },
    {
      "type": "Feature",
      "properties": {
        "norad_id": 30763,
        "name": "FENGYUN 1C DEB",
        "group": "fengyun-1c-debris",
        "lat": -29.34671282959984,
        "lon": -110.97858518512845,
        "alt_km": 676.9040365823657,
        "timestamp": "2025-12-27T14:26:30.800428+00:00",
        "meta_object_name": "FENGYUN 1C DEB",
        "meta_object_id": "1999-025ATZ",
        "meta_epoch": "2025-12-26T21:19:27.283008",
        "meta_mean_motion": 14.61656597,
        "meta_eccentricity": 0.0024615,
        "meta_inclination": 98.8918,
        "meta_ra_of_asc_node": 73.3048,
        "meta_arg_of_pericenter": 228.1695,
        "meta_mean_anomaly": 190.6604,
        "meta_ephemeris_type": 0,
        "meta_classification_type": "U",
        "meta_norad_cat_id": 30763,
        "meta_element_set_no": 999,
        "meta_rev_at_epoch": 97351,
        "meta_bstar": 0.0052589,
        "meta_mean_motion_dot": 0.00026325,
        "meta_mean_motion_ddot": 0,
        "tle_line1": "1 30763U 99025ATZ 25360.88851022  .00026325  00000+0  52589-2 0  9992",
        "tle_line2": "2 30763  98.8918  73.3048 0024615 228.1695 190.6604 14.61656597973511"
      },
      "geometry": {
        "type": "Point",
        "coordinates": [
          -110.97858518512845,
          -29.34671282959984
        ]
      }
    },
    {
      "type": "Feature",
      "properties": {
        "norad_id": 30764,
        "name": "FENGYUN 1C DEB",
        "group": "fengyun-1c-debris",
        "lat": 58.17873682914596,
        "lon": 169.35662127771928,
        "alt_km": 417.69940148913975,
        "timestamp": "2025-12-27T14:26:30.800438+00:00",
        "meta_object_name": "FENGYUN 1C DEB",
        "meta_object_id": "1999-025AUA",
        "meta_epoch": "2025-12-27T04:30:07.616160",
        "meta_mean_motion": 15.2998236,
        "meta_eccentricity": 0.00765648,
        "meta_inclination": 98.7805,
        "meta_ra_of_asc_node": 334.4442,
        "meta_arg_of_pericenter": 121.1646,
        "meta_mean_anomaly": 239.7127,
        "meta_ephemeris_type": 0,
        "meta_classification_type": "U",
        "meta_norad_cat_id": 30764,
        "meta_element_set_no": 999,
        "meta_rev_at_epoch": 1443,
        "meta_bstar": 0.0012236467,
        "meta_mean_motion_dot": 0.00038908,
        "meta_mean_motion_ddot": 0,
        "tle_line1": "1 30764U 99025AUA 25361.18758815  .00038908  00000+0  12236-2 0  9998",
        "tle_line2": "2 30764  98.7805 334.4442 0076564 121.1646 239.7127 15.29982360 14430"
      },
      "geometry": {
        "type": "Point",
        "coordinates": [
          169.35662127771928,
          58.17873682914596
        ]
      }
    },
    {
      "type": "Feature",
      "properties": {
        "norad_id": 30765,
        "name": "FENGYUN 1C DEB",
        "group": "fengyun-1c-debris",
        "lat": -13.61557241123839,
        "lon": -134.77939218532936,
        "alt_km": 803.1134225732494,
        "timestamp": "2025-12-27T14:26:30.800448+00:00",
        "meta_object_name": "FENGYUN 1C DEB",
        "meta_object_id": "1999-025AUB",
        "meta_epoch": "2025-12-26T14:29:48.482304",
        "meta_mean_motion": 14.14753615,
        "meta_eccentricity": 0.0068784,
        "meta_inclination": 98.7868,
        "meta_ra_of_asc_node": 46.3856,
        "meta_arg_of_pericenter": 169.9958,
        "meta_mean_anomaly": 344.6948,
        "meta_ephemeris_type": 0,
        "meta_classification_type": "U",
        "meta_norad_cat_id": 30765,
        "meta_element_set_no": 999,
        "meta_rev_at_epoch": 97018,
        "meta_bstar": 0.00079387,
        "meta_mean_motion_dot": 1.521e-05,
        "meta_mean_motion_ddot": 0,
        "tle_line1": "1 30765U 99025AUB 25360.60403336  .00001521  00000+0  79387-3 0  9992",
        "tle_line2": "2 30765  98.7868  46.3856 0068784 169.9958 344.6948 14.14753615970181"
      },
      "geometry": {
        "type": "Point",
        "coordinates": [
          -134.77939218532936,
          -13.61557241123839
        ]
      }
    },
    {
      "type": "Feature",
      "properties": {
        "norad_id": 30766,
        "name": "FENGYUN 1C DEB",
        "group": "fengyun-1c-debris",
        "lat": 25.511251537657472,
        "lon": -174.376051430042,
        "alt_km": 891.0619818890555,
        "timestamp": "2025-12-27T14:26:30.800458+00:00",
        "meta_object_name": "FENGYUN 1C DEB",
        "meta_object_id": "1999-025AUC",
        "meta_epoch": "2025-12-26T18:06:52.091712",
        "meta_mean_motion": 14.0956431,
        "meta_eccentricity": 0.00833705,
        "meta_inclination": 98.6728,
        "meta_ra_of_asc_node": 0.631,
        "meta_arg_of_pericenter": 35.0601,
        "meta_mean_anomaly": 142.6697,
        "meta_ephemeris_type": 0,
        "meta_classification_type": "U",
        "meta_norad_cat_id": 30766,
        "meta_element_set_no": 999,
        "meta_rev_at_epoch": 62994,
        "meta_bstar": 0.00080210776,
        "meta_mean_motion_dot": 1.408e-05,
        "meta_mean_motion_ddot": 0,
        "tle_line1": "1 30766U 99025AUC 25360.75476958  .00001408  00000+0  80211-3 0  9991",
        "tle_line2": "2 30766  98.6728   0.6310 0083370  35.0601 142.6697 14.09564310629948"
      },
      "geometry": {
        "type": "Point",
        "coordinates": [
          -174.376051430042,
          25.511251537657472
        ]
      }
    }
  ]
}